{
    "links": {
        "self": "http://www.neowsapp.com/rest/v1/neo/3824989?api_key=iIulBulltgU6a56xZRHN4H3l9WmuAYTsLGpBGhQ2"
    },
    "id": "3824989",
    "neo_reference_id": "3824989",
    "name": "(2018 KC1)",
    "designation": "2018 KC1",
    "nasa_jpl_url": "http://ssd.jpl.nasa.gov/sbdb.cgi?sstr=3824989",
    "absolute_magnitude_h": 25.6,
    "estimated_diameter": {
        "kilometers": {
            "estimated_diameter_min": 0.0201629919,
            "estimated_diameter_max": 0.0450858206
        },
        "meters": {
            "estimated_diameter_min": 20.1629919443,
            "estimated_diameter_max": 45.0858206172
        },
        "miles": {
            "estimated_diameter_min": 0.0125286985,
            "estimated_diameter_max": 0.0280150214
        },
        "feet": {
            "estimated_diameter_min": 66.1515504905,
            "estimated_diameter_max": 147.9193637137
        }
    },
    "is_potentially_hazardous_asteroid": false,
    "close_approach_data": [
        {
            "close_approach_date": "2010-05-10",
            "close_approach_date_full": "2010-May-10 05:42",
            "epoch_date_close_approach": 1273470120000,
            "relative_velocity": {
                "kilometers_per_second": "8.2281320353",
                "kilometers_per_hour": "29621.275326954",
                "miles_per_hour": "18405.5085496843"
            },
            "miss_distance": {
                "astronomical": "0.2032056103",
                "lunar": "79.0469824067",
                "kilometers": "30399126.472930061",
                "miles": "18889141.2891584018"
            },
            "orbiting_body": "Earth"
        },
        {
            "close_approach_date": "2018-05-25",
            "close_approach_date_full": "2018-May-25 07:28",
            "epoch_date_close_approach": 1527233280000,
            "relative_velocity": {
                "kilometers_per_second": "4.3012808404",
                "kilometers_per_hour": "15484.6110254889",
                "miles_per_hour": "9621.5351119212"
            },
            "miss_distance": {
                "astronomical": "0.0594025136",
                "lunar": "23.1075777904",
                "kilometers": "8886489.507206032",
                "miles": "5521808.5301139616"
            },
            "orbiting_body": "Earth"
        }
    ],
    "orbital_data": {
        "orbit_id": "3",
        "orbit_determination_date": "2018-06-09 06:34:33",
        "first_observation_date": "2018-05-18",
        "last_observation_date": "2018-06-08",
        "data_arc_in_days": 21,
        "observations_used": 32,
        "orbit_uncertainty": "7",
        "minimum_orbit_intersection": ".0584959",
        "jupiter_tisserand_invariant": "4.788",
        "epoch_osculation": "2459000.5",
        "eccentricity": ".2220679619256614",
        "semi_major_axis": "1.371872880782957",
        "inclination": "6.583709145560127",
        "ascending_node_longitude": "54.77603833586723",
        "orbital_period": "586.9069244380478",
        "perihelion_distance": "1.0672238661264",
        "perihelion_argument": "195.2492123196058",
        "aphelion_distance": "1.676521895439514",
        "perihelion_time": "2458857.630687714473",
        "mean_anomaly": "87.6339165226848",
        "mean_motion": ".6133851638310337",
        "equinox": "J2000",
        "orbit_class": {
            "orbit_class_type": "AMO",
            "orbit_class_description": "Near-Earth asteroid orbits similar to that of 1221 Amor",
            "orbit_class_range": "1.017 AU < q (perihelion) < 1.3 AU"
        }
    },
    "is_sentry_object": false
}